[{"OBJECT_NAME":"STARLINK-3341","OBJECT_ID":"2022-001Q","EPOCH":"2026-03-09T12:21:40.533408","MEAN_MOTION":15.08835441,"ECCENTRICITY":0.00013722,"INCLINATION":53.2184,"RA_OF_ASC_NODE":169.9072,"ARG_OF_PERICENTER":102.0885,"MEAN_ANOMALY":258.0261,"EPHEMERIS_TYPE":0,"CLASSIFICATION_TYPE":"U","NORAD_CAT_ID":50817,"ELEMENT_SET_NO":999,"REV_AT_EPOCH":23038,"BSTAR":9.197913e-6,"MEAN_MOTION_DOT":-1.42e-6,"MEAN_MOTION_DDOT":0},{"OBJECT_NAME":"YUNYAO-1 44","OBJECT_ID":"2025-059B","EPOCH":"2026-03-09T23:37:33.233088","MEAN_MOTION":15.10344945,"ECCENTRICITY":0.00180831,"INCLINATION":97.6069,"RA_OF_ASC_NODE":250.8958,"ARG_OF_PERICENTER":135.5449,"MEAN_ANOMALY":224.7236,"EPHEMERIS_TYPE":0,"CLASSIFICATION_TYPE":"U","NORAD_CAT_ID":63345,"ELEMENT_SET_NO":999,"REV_AT_EPOCH":5332,"BSTAR":0.0003556422,"MEAN_MOTION_DOT":5.791e-5,"MEAN_MOTION_DDOT":0}]
